ORBCOMM FM20 [+]        
1 25416U 98046D   23298.57261149  .00000977  00000+0  39270-3 0  9990
2 25416  44.9935 139.1071 0000815  81.1030 278.9909 14.34523832317946
ORBCOMM FM16 [-]        
1 25417U 98046E   23298.92610648  .00001421  00000+0  54083-3 0  9996
2 25417  44.9936 134.4893 0004039 153.7505 206.3547 14.35244910317911
ORBCOMM FM15 [-]        
1 25418U 98046F   23298.56883473  .00001316  00000+0  50695-3 0  9993
2 25418  44.9966 139.7960 0003438 153.0765 207.0261 14.34996702317879
ORBCOMM FM14 [-]        
1 25419U 98046G   23298.90526532  .00001351  00000+0  51797-3 0  9995
2 25419  44.9958 137.5439 0002544 137.8927 297.2402 14.35112602317873
ORBCOMM FM13 [+]        
1 25420U 98046H   23298.57077775  .00001144  00000+0  45112-3 0  9994
2 25420  44.9968 143.0157 0004593 138.1092 222.0107 14.34564774316909
ORBCOMM FM22 [-]        
1 25476U 98053B   23298.20969847  .00001498  00000+0  57086-3 0  9998
2 25476  45.0075 226.8014 0001861  43.1106 316.9887 14.34959107310853
ORBCOMM FM23 [-]        
1 25477U 98053C   23298.27002045  .00001410  00000+0  54443-3 0  9992
2 25477  45.0088 230.9903 0001480  20.5425 339.5481 14.34561780311028
